STARLINK-35581          
1 66479U 25262Z   25342.83335647 -.00043062  00000+0 -73275-3 0  9997
2 66479  43.0005  93.8741 0001447 273.7657 243.6062 15.50559299  5010
STARLINK-35670          
1 66480U 25262AA  25342.83335647 -.00039839  00000+0 -67615-3 0  9997
2 66480  43.0006  93.8595 0001456 276.5032 246.5052 15.50602041  5013
STARLINK-35698          
1 66481U 25262AB  25342.83335647 -.00056938  00000+0 -97067-3 0  9991
2 66481  43.0006  93.8545 0001534 275.9319 248.9929 15.50610722  5011
STARLINK-35648          
1 66482U 25262AC  25342.83335647 -.00060130  00000+0 -10257-2 0  9996
2 66482  43.0006  93.8497 0001420 273.9249 252.9134 15.50615261  4859
STARLINK-35654          
1 66483U 25262AD  25342.83335647 -.00021550  00000+0 -36234-3 0  9994
2 66483  43.0006  93.8439 0001566 279.8028 248.9640 15.50592033  5014
STARLINK-35371          
1 66484U 25262AE  25342.83335647 -.00042018  00000+0 -71366-3 0  9992
2 66484  43.0005  93.8408 0001544 278.2235 252.4540 15.50601178  5019
STARLINK-34774          
1 66485U 25263A   25342.83335647 -.02031283  00000+0 -38497-1 0  9994
2 66485  43.0002 148.0210 0001550 284.6292 125.4504 15.50818083  5005
STARLINK-34844          
1 66486U 25263B   25342.83335647 -.00001547  00000+0 -20560-4 0  9998
2 66486  43.0004 148.0143 0001625 288.1288 123.8866 15.50572581  4956
STARLINK-34733          
1 66487U 25263C   25342.58335648 -.00095182  00000+0 -16349-2 0  9998
2 66487  43.0001 149.4724 0001592 272.3783 184.3740 15.50603594  4965
STARLINK-35515          
1 66488U 25263D   25342.83335647 -.00016004  00000+0 -26750-3 0  9990
2 66488  43.0000 148.0053 0001515 289.1986 126.6521 15.50581800  5008
STARLINK-35696          
1 66489U 25263E   25342.83335647 -.00035982  00000+0 -61028-3 0  9994
2 66489  43.0002 148.0004 0001676 283.3340 134.4408 15.50580690  5002
STARLINK-35693          
1 66490U 25263F   25342.83335647 -.00018988  00000+0 -31849-3 0  9991
2 66490  43.0004 147.9954 0001609 290.2149 129.4437 15.50590015  5006
