CCSDS_OMM_VERS = 2.0
CREATION_DATE  = 
ORIGINATOR     = 

OBJECT_NAME    = STARLINK-35581
OBJECT_ID      = 2025-262Z
CENTER_NAME    = EARTH
REF_FRAME      = TEME
TIME_SYSTEM    = UTC
MEAN_ELEMENT_THEORY = SGP/SGP4

EPOCH          = 2025-12-08T20:00:01.999008
MEAN_MOTION    = 15.50559299
ECCENTRICITY   = .0001447
INCLINATION    = 43.0005
RA_OF_ASC_NODE = 93.8741
ARG_OF_PERICENTER = 273.7657
MEAN_ANOMALY   = 243.6062

EPHEMERIS_TYPE = 0
CLASSIFICATION_TYPE = U
NORAD_CAT_ID   = 66479
ELEMENT_SET_NO = 999
REV_AT_EPOCH   = 501
BSTAR          = -.73275E-3
MEAN_MOTION_DOT = -.43062E-3
MEAN_MOTION_DDOT = 0

CCSDS_OMM_VERS = 2.0
CREATION_DATE  = 
ORIGINATOR     = 

OBJECT_NAME    = STARLINK-35670
OBJECT_ID      = 2025-262AA
CENTER_NAME    = EARTH
REF_FRAME      = TEME
TIME_SYSTEM    = UTC
MEAN_ELEMENT_THEORY = SGP/SGP4

EPOCH          = 2025-12-08T20:00:01.999008
MEAN_MOTION    = 15.50602041
ECCENTRICITY   = .0001456
INCLINATION    = 43.0006
RA_OF_ASC_NODE = 93.8595
ARG_OF_PERICENTER = 276.5032
MEAN_ANOMALY   = 246.5052

EPHEMERIS_TYPE = 0
CLASSIFICATION_TYPE = U
NORAD_CAT_ID   = 66480
ELEMENT_SET_NO = 999
REV_AT_EPOCH   = 501
BSTAR          = -.67615E-3
MEAN_MOTION_DOT = -.39839E-3
MEAN_MOTION_DDOT = 0

CCSDS_OMM_VERS = 2.0
CREATION_DATE  = 
ORIGINATOR     = 

OBJECT_NAME    = STARLINK-35698
OBJECT_ID      = 2025-262AB
CENTER_NAME    = EARTH
REF_FRAME      = TEME
TIME_SYSTEM    = UTC
MEAN_ELEMENT_THEORY = SGP/SGP4

EPOCH          = 2025-12-08T20:00:01.999008
MEAN_MOTION    = 15.50610722
ECCENTRICITY   = .0001534
INCLINATION    = 43.0006
RA_OF_ASC_NODE = 93.8545
ARG_OF_PERICENTER = 275.9319
MEAN_ANOMALY   = 248.9929

EPHEMERIS_TYPE = 0
CLASSIFICATION_TYPE = U
NORAD_CAT_ID   = 66481
ELEMENT_SET_NO = 999
REV_AT_EPOCH   = 501
BSTAR          = -.97067E-3
MEAN_MOTION_DOT = -.56938E-3
MEAN_MOTION_DDOT = 0

CCSDS_OMM_VERS = 2.0
CREATION_DATE  = 
ORIGINATOR     = 

OBJECT_NAME    = STARLINK-35648
OBJECT_ID      = 2025-262AC
CENTER_NAME    = EARTH
REF_FRAME      = TEME
TIME_SYSTEM    = UTC
MEAN_ELEMENT_THEORY = SGP/SGP4

EPOCH          = 2025-12-08T20:00:01.999008
MEAN_MOTION    = 15.50615261
ECCENTRICITY   = .000142
INCLINATION    = 43.0006
RA_OF_ASC_NODE = 93.8497
ARG_OF_PERICENTER = 273.9249
MEAN_ANOMALY   = 252.9134

EPHEMERIS_TYPE = 0
CLASSIFICATION_TYPE = U
NORAD_CAT_ID   = 66482
ELEMENT_SET_NO = 999
REV_AT_EPOCH   = 485
BSTAR          = -.10257E-2
MEAN_MOTION_DOT = -.6013E-3
MEAN_MOTION_DDOT = 0

CCSDS_OMM_VERS = 2.0
CREATION_DATE  = 
ORIGINATOR     = 

OBJECT_NAME    = STARLINK-35654
OBJECT_ID      = 2025-262AD
CENTER_NAME    = EARTH
REF_FRAME      = TEME
TIME_SYSTEM    = UTC
MEAN_ELEMENT_THEORY = SGP/SGP4

EPOCH          = 2025-12-08T20:00:01.999008
MEAN_MOTION    = 15.50592033
ECCENTRICITY   = .0001566
INCLINATION    = 43.0006
RA_OF_ASC_NODE = 93.8439
ARG_OF_PERICENTER = 279.8028
MEAN_ANOMALY   = 248.9640

EPHEMERIS_TYPE = 0
CLASSIFICATION_TYPE = U
NORAD_CAT_ID   = 66483
ELEMENT_SET_NO = 999
REV_AT_EPOCH   = 501
BSTAR          = -.36234E-3
MEAN_MOTION_DOT = -.2155E-3
MEAN_MOTION_DDOT = 0

CCSDS_OMM_VERS = 2.0
CREATION_DATE  = 
ORIGINATOR     = 

OBJECT_NAME    = STARLINK-35371
OBJECT_ID      = 2025-262AE
CENTER_NAME    = EARTH
REF_FRAME      = TEME
TIME_SYSTEM    = UTC
MEAN_ELEMENT_THEORY = SGP/SGP4

EPOCH          = 2025-12-08T20:00:01.999008
MEAN_MOTION    = 15.50601178
ECCENTRICITY   = .0001544
INCLINATION    = 43.0005
RA_OF_ASC_NODE = 93.8408
ARG_OF_PERICENTER = 278.2235
MEAN_ANOMALY   = 252.4540

EPHEMERIS_TYPE = 0
CLASSIFICATION_TYPE = U
NORAD_CAT_ID   = 66484
ELEMENT_SET_NO = 999
REV_AT_EPOCH   = 501
BSTAR          = -.71366E-3
MEAN_MOTION_DOT = -.42018E-3
MEAN_MOTION_DDOT = 0

CCSDS_OMM_VERS = 2.0
CREATION_DATE  = 
ORIGINATOR     = 

OBJECT_NAME    = STARLINK-34774
OBJECT_ID      = 2025-263A
CENTER_NAME    = EARTH
REF_FRAME      = TEME
TIME_SYSTEM    = UTC
MEAN_ELEMENT_THEORY = SGP/SGP4

EPOCH          = 2025-12-08T20:00:01.999008
MEAN_MOTION    = 15.50818083
ECCENTRICITY   = .000155
INCLINATION    = 43.0002
RA_OF_ASC_NODE = 148.0210
ARG_OF_PERICENTER = 284.6292
MEAN_ANOMALY   = 125.4504

EPHEMERIS_TYPE = 0
CLASSIFICATION_TYPE = U
NORAD_CAT_ID   = 66485
ELEMENT_SET_NO = 999
REV_AT_EPOCH   = 500
BSTAR          = -.38497E-1
MEAN_MOTION_DOT = -.2031283E-1
MEAN_MOTION_DDOT = 0

CCSDS_OMM_VERS = 2.0
CREATION_DATE  = 
ORIGINATOR     = 

OBJECT_NAME    = STARLINK-34844
OBJECT_ID      = 2025-263B
CENTER_NAME    = EARTH
REF_FRAME      = TEME
TIME_SYSTEM    = UTC
MEAN_ELEMENT_THEORY = SGP/SGP4

EPOCH          = 2025-12-08T20:00:01.999008
MEAN_MOTION    = 15.50572581
ECCENTRICITY   = .0001625
INCLINATION    = 43.0004
RA_OF_ASC_NODE = 148.0143
ARG_OF_PERICENTER = 288.1288
MEAN_ANOMALY   = 123.8866

EPHEMERIS_TYPE = 0
CLASSIFICATION_TYPE = U
NORAD_CAT_ID   = 66486
ELEMENT_SET_NO = 999
REV_AT_EPOCH   = 495
BSTAR          = -.2056E-4
MEAN_MOTION_DOT = -.1547E-4
MEAN_MOTION_DDOT = 0

CCSDS_OMM_VERS = 2.0
CREATION_DATE  = 
ORIGINATOR     = 

OBJECT_NAME    = STARLINK-34733
OBJECT_ID      = 2025-263C
CENTER_NAME    = EARTH
REF_FRAME      = TEME
TIME_SYSTEM    = UTC
MEAN_ELEMENT_THEORY = SGP/SGP4

EPOCH          = 2025-12-08T14:00:01.999872
MEAN_MOTION    = 15.50603594
ECCENTRICITY   = .00015926
INCLINATION    = 43.0001
RA_OF_ASC_NODE = 149.4724
ARG_OF_PERICENTER = 272.3783
MEAN_ANOMALY   = 184.3740

EPHEMERIS_TYPE = 0
CLASSIFICATION_TYPE = U
NORAD_CAT_ID   = 66487
ELEMENT_SET_NO = 999
REV_AT_EPOCH   = 496
BSTAR          = -.16349306E-2
MEAN_MOTION_DOT = -.95182E-3
MEAN_MOTION_DDOT = 0

CCSDS_OMM_VERS = 2.0
CREATION_DATE  = 
ORIGINATOR     = 

OBJECT_NAME    = STARLINK-35515
OBJECT_ID      = 2025-263D
CENTER_NAME    = EARTH
REF_FRAME      = TEME
TIME_SYSTEM    = UTC
MEAN_ELEMENT_THEORY = SGP/SGP4

EPOCH          = 2025-12-08T20:00:01.999008
MEAN_MOTION    = 15.50581800
ECCENTRICITY   = .0001515
INCLINATION    = 43.0000
RA_OF_ASC_NODE = 148.0053
ARG_OF_PERICENTER = 289.1986
MEAN_ANOMALY   = 126.6521

EPHEMERIS_TYPE = 0
CLASSIFICATION_TYPE = U
NORAD_CAT_ID   = 66488
ELEMENT_SET_NO = 999
REV_AT_EPOCH   = 500
BSTAR          = -.2675E-3
MEAN_MOTION_DOT = -.16004E-3
MEAN_MOTION_DDOT = 0

CCSDS_OMM_VERS = 2.0
CREATION_DATE  = 
ORIGINATOR     = 

OBJECT_NAME    = STARLINK-35696
OBJECT_ID      = 2025-263E
CENTER_NAME    = EARTH
REF_FRAME      = TEME
TIME_SYSTEM    = UTC
MEAN_ELEMENT_THEORY = SGP/SGP4

EPOCH          = 2025-12-08T20:00:01.999008
MEAN_MOTION    = 15.50580690
ECCENTRICITY   = .0001676
INCLINATION    = 43.0002
RA_OF_ASC_NODE = 148.0004
ARG_OF_PERICENTER = 283.3340
MEAN_ANOMALY   = 134.4408

EPHEMERIS_TYPE = 0
CLASSIFICATION_TYPE = U
NORAD_CAT_ID   = 66489
ELEMENT_SET_NO = 999
REV_AT_EPOCH   = 500
BSTAR          = -.61028E-3
MEAN_MOTION_DOT = -.35982E-3
MEAN_MOTION_DDOT = 0

CCSDS_OMM_VERS = 2.0
CREATION_DATE  = 
ORIGINATOR     = 

OBJECT_NAME    = STARLINK-35693
OBJECT_ID      = 2025-263F
CENTER_NAME    = EARTH
REF_FRAME      = TEME
TIME_SYSTEM    = UTC
MEAN_ELEMENT_THEORY = SGP/SGP4

EPOCH          = 2025-12-08T20:00:01.999008
MEAN_MOTION    = 15.50590015
ECCENTRICITY   = .0001609
INCLINATION    = 43.0004
RA_OF_ASC_NODE = 147.9954
ARG_OF_PERICENTER = 290.2149
MEAN_ANOMALY   = 129.4437

EPHEMERIS_TYPE = 0
CLASSIFICATION_TYPE = U
NORAD_CAT_ID   = 66490
ELEMENT_SET_NO = 999
REV_AT_EPOCH   = 500
BSTAR          = -.31849E-3
MEAN_MOTION_DOT = -.18988E-3
MEAN_MOTION_DDOT = 0

